[{"OBJECT_NAME":"STARLINK-34211","OBJECT_ID":"2025-119Y","EPOCH":"2026-03-08T16:49:12.563904","MEAN_MOTION":15.27578031,"ECCENTRICITY":8.06e-5,"INCLINATION":42.999,"RA_OF_ASC_NODE":313.0169,"ARG_OF_PERICENTER":273.6098,"MEAN_ANOMALY":86.4661,"EPHEMERIS_TYPE":0,"CLASSIFICATION_TYPE":"U","NORAD_CAT_ID":64255,"ELEMENT_SET_NO":999,"REV_AT_EPOCH":4401,"BSTAR":0.0013204804,"MEAN_MOTION_DOT":0.00036251,"MEAN_MOTION_DDOT":0},{"OBJECT_NAME":"REAL","OBJECT_ID":"2025-154G","EPOCH":"2026-03-09T17:20:09.670560","MEAN_MOTION":15.28408058,"ECCENTRICITY":0.00018528,"INCLINATION":97.4133,"RA_OF_ASC_NODE":137.2581,"ARG_OF_PERICENTER":118.5876,"MEAN_ANOMALY":241.555,"EPHEMERIS_TYPE":0,"CLASSIFICATION_TYPE":"U","NORAD_CAT_ID":64875,"ELEMENT_SET_NO":999,"REV_AT_EPOCH":3483,"BSTAR":0.0008290401,"MEAN_MOTION_DOT":0.00022901,"MEAN_MOTION_DDOT":0}]
